[{"OBJECT_NAME":"STARLINK-34089","OBJECT_ID":"2025-102T","EPOCH":"2026-03-09T12:46:59.695968","MEAN_MOTION":14.98352565,"ECCENTRICITY":0.00033576,"INCLINATION":70.0009,"RA_OF_ASC_NODE":115.0499,"ARG_OF_PERICENTER":269.0901,"MEAN_ANOMALY":90.9874,"EPHEMERIS_TYPE":0,"CLASSIFICATION_TYPE":"U","NORAD_CAT_ID":64039,"ELEMENT_SET_NO":999,"REV_AT_EPOCH":4592,"BSTAR":0.00043099448,"MEAN_MOTION_DOT":5.056e-5,"MEAN_MOTION_DDOT":0},{"OBJECT_NAME":"FENGYUN 1C DEB","OBJECT_ID":"1999-025EJU","EPOCH":"2026-02-26T20:11:02.200416","MEAN_MOTION":14.76820792,"ECCENTRICITY":0.0127498,"INCLINATION":99.1634,"RA_OF_ASC_NODE":278.149,"ARG_OF_PERICENTER":258.5062,"MEAN_ANOMALY":100.1804,"EPHEMERIS_TYPE":0,"CLASSIFICATION_TYPE":"U","NORAD_CAT_ID":37474,"ELEMENT_SET_NO":999,"REV_AT_EPOCH":63498,"BSTAR":0.0012932,"MEAN_MOTION_DOT":0.00010319,"MEAN_MOTION_DDOT":0}]
